CCSDS_OMM_VERS = 2.0
CREATION_DATE  = 
ORIGINATOR     = 

OBJECT_NAME    = HTV-X1
OBJECT_ID      = 2025-241A
CENTER_NAME    = EARTH
REF_FRAME      = TEME
TIME_SYSTEM    = UTC
MEAN_ELEMENT_THEORY = SGP/SGP4

EPOCH          = 2026-03-14T08:15:41.718240
MEAN_MOTION    = 15.22910005
ECCENTRICITY   = .00057324
INCLINATION    = 51.6357
RA_OF_ASC_NODE = 50.7100
ARG_OF_PERICENTER = 187.3443
MEAN_ANOMALY   = 172.7451

EPHEMERIS_TYPE = 0
CLASSIFICATION_TYPE = U
NORAD_CAT_ID   = 66174
ELEMENT_SET_NO = 999
REV_AT_EPOCH   = 2166
BSTAR          = .5679389E-3
MEAN_MOTION_DOT = .13198E-3
MEAN_MOTION_DDOT = 0

CCSDS_OMM_VERS = 2.0
CREATION_DATE  = 
ORIGINATOR     = 

OBJECT_NAME    = SZ-21 MODULE
OBJECT_ID      = 2025-246C
CENTER_NAME    = EARTH
REF_FRAME      = TEME
TIME_SYSTEM    = UTC
MEAN_ELEMENT_THEORY = SGP/SGP4

EPOCH          = 2026-03-21T20:22:02.555616
MEAN_MOTION    = 15.69453239
ECCENTRICITY   = .00005056
INCLINATION    = 41.4733
RA_OF_ASC_NODE = 128.4589
ARG_OF_PERICENTER = 233.4003
MEAN_ANOMALY   = 126.6793

EPHEMERIS_TYPE = 0
CLASSIFICATION_TYPE = U
NORAD_CAT_ID   = 66515
ELEMENT_SET_NO = 999
REV_AT_EPOCH   = 1998
BSTAR          = .36504589E-3
MEAN_MOTION_DOT = .44117E-3
MEAN_MOTION_DDOT = 0

CCSDS_OMM_VERS = 2.0
CREATION_DATE  = 
ORIGINATOR     = 

OBJECT_NAME    = SHENZHOU-22
OBJECT_ID      = 2025-272A
CENTER_NAME    = EARTH
REF_FRAME      = TEME
TIME_SYSTEM    = UTC
MEAN_ELEMENT_THEORY = SGP/SGP4

EPOCH          = 2026-03-21T20:54:55.141056
MEAN_MOTION    = 15.61285999
ECCENTRICITY   = .00053122
INCLINATION    = 41.4660
RA_OF_ASC_NODE = 134.0045
ARG_OF_PERICENTER = 350.4571
MEAN_ANOMALY   = 9.6167

EPHEMERIS_TYPE = 0
CLASSIFICATION_TYPE = U
NORAD_CAT_ID   = 66645
ELEMENT_SET_NO = 999
REV_AT_EPOCH   = 27910
BSTAR          = .32507415E-3
MEAN_MOTION_DOT = .28184E-3
MEAN_MOTION_DDOT = 0

CCSDS_OMM_VERS = 2.0
CREATION_DATE  = 
ORIGINATOR     = 

OBJECT_NAME    = SOYUZ-MS 28
OBJECT_ID      = 2025-275A
CENTER_NAME    = EARTH
REF_FRAME      = TEME
TIME_SYSTEM    = UTC
MEAN_ELEMENT_THEORY = SGP/SGP4

EPOCH          = 2026-03-21T20:09:59.780736
MEAN_MOTION    = 15.48434052
ECCENTRICITY   = .00061781
INCLINATION    = 51.6344
RA_OF_ASC_NODE = 12.2940
ARG_OF_PERICENTER = 217.6452
MEAN_ANOMALY   = 142.4104

EPHEMERIS_TYPE = 0
CLASSIFICATION_TYPE = U
NORAD_CAT_ID   = 66664
ELEMENT_SET_NO = 999
REV_AT_EPOCH   = 55771
BSTAR          = .28909851E-3
MEAN_MOTION_DOT = .15204E-3
MEAN_MOTION_DDOT = 0

CCSDS_OMM_VERS = 2.0
CREATION_DATE  = 
ORIGINATOR     = 

OBJECT_NAME    = DUPLEX
OBJECT_ID      = 1998-067XS
CENTER_NAME    = EARTH
REF_FRAME      = TEME
TIME_SYSTEM    = UTC
MEAN_ELEMENT_THEORY = SGP/SGP4

EPOCH          = 2026-03-21T21:53:52.523808
MEAN_MOTION    = 15.56968220
ECCENTRICITY   = .0003093
INCLINATION    = 51.6306
RA_OF_ASC_NODE = 8.2783
ARG_OF_PERICENTER = 164.9627
MEAN_ANOMALY   = 195.1457

EPHEMERIS_TYPE = 0
CLASSIFICATION_TYPE = U
NORAD_CAT_ID   = 66906
ELEMENT_SET_NO = 999
REV_AT_EPOCH   = 1703
BSTAR          = .46990366E-3
MEAN_MOTION_DOT = .34198E-3
MEAN_MOTION_DDOT = 0

CCSDS_OMM_VERS = 2.0
CREATION_DATE  = 
ORIGINATOR     = 

OBJECT_NAME    = ISS OBJECT XT
OBJECT_ID      = 1998-067XT
CENTER_NAME    = EARTH
REF_FRAME      = TEME
TIME_SYSTEM    = UTC
MEAN_ELEMENT_THEORY = SGP/SGP4

EPOCH          = 2026-03-21T19:03:10.879488
MEAN_MOTION    = 15.73355996
ECCENTRICITY   = .00052981
INCLINATION    = 51.6255
RA_OF_ASC_NODE = 3.7105
ARG_OF_PERICENTER = 157.6847
MEAN_ANOMALY   = 202.4384

EPHEMERIS_TYPE = 0
CLASSIFICATION_TYPE = U
NORAD_CAT_ID   = 66907
ELEMENT_SET_NO = 999
REV_AT_EPOCH   = 1708
BSTAR          = .15658019E-2
MEAN_MOTION_DOT = .227192E-2
MEAN_MOTION_DDOT = 0

CCSDS_OMM_VERS = 2.0
CREATION_DATE  = 
ORIGINATOR     = 

OBJECT_NAME    = ISS OBJECT XU
OBJECT_ID      = 1998-067XU
CENTER_NAME    = EARTH
REF_FRAME      = TEME
TIME_SYSTEM    = UTC
MEAN_ELEMENT_THEORY = SGP/SGP4

EPOCH          = 2026-03-21T18:59:03.372864
MEAN_MOTION    = 15.73514339
ECCENTRICITY   = .00054878
INCLINATION    = 51.6250
RA_OF_ASC_NODE = 3.6874
ARG_OF_PERICENTER = 157.2895
MEAN_ANOMALY   = 202.8347

EPHEMERIS_TYPE = 0
CLASSIFICATION_TYPE = U
NORAD_CAT_ID   = 66908
ELEMENT_SET_NO = 999
REV_AT_EPOCH   = 1708
BSTAR          = .15826321E-2
MEAN_MOTION_DOT = .231332E-2
MEAN_MOTION_DDOT = 0

CCSDS_OMM_VERS = 2.0
CREATION_DATE  = 
ORIGINATOR     = 

OBJECT_NAME    = SILVERSAT
OBJECT_ID      = 1998-067XV
CENTER_NAME    = EARTH
REF_FRAME      = TEME
TIME_SYSTEM    = UTC
MEAN_ELEMENT_THEORY = SGP/SGP4

EPOCH          = 2026-03-21T18:22:28.899264
MEAN_MOTION    = 15.77625461
ECCENTRICITY   = .00060286
INCLINATION    = 51.6233
RA_OF_ASC_NODE = 2.7602
ARG_OF_PERICENTER = 161.9220
MEAN_ANOMALY   = 198.1996

EPHEMERIS_TYPE = 0
CLASSIFICATION_TYPE = U
NORAD_CAT_ID   = 66909
ELEMENT_SET_NO = 999
REV_AT_EPOCH   = 1709
BSTAR          = .18725789E-2
MEAN_MOTION_DOT = .331784E-2
MEAN_MOTION_DDOT = 0

CCSDS_OMM_VERS = 2.0
CREATION_DATE  = 
ORIGINATOR     = 

OBJECT_NAME    = ISS OBJECT XW
OBJECT_ID      = 1998-067XW
CENTER_NAME    = EARTH
REF_FRAME      = TEME
TIME_SYSTEM    = UTC
MEAN_ELEMENT_THEORY = SGP/SGP4

EPOCH          = 2026-03-21T19:05:20.266080
MEAN_MOTION    = 15.72275809
ECCENTRICITY   = .00057948
INCLINATION    = 51.6252
RA_OF_ASC_NODE = 3.7127
ARG_OF_PERICENTER = 158.4228
MEAN_ANOMALY   = 201.7016

EPHEMERIS_TYPE = 0
CLASSIFICATION_TYPE = U
NORAD_CAT_ID   = 66910
ELEMENT_SET_NO = 999
REV_AT_EPOCH   = 1708
BSTAR          = .14497158E-2
MEAN_MOTION_DOT = .200201E-2
MEAN_MOTION_DDOT = 0

CCSDS_OMM_VERS = 2.0
CREATION_DATE  = 
ORIGINATOR     = 

OBJECT_NAME    = ISS OBJECT XX
OBJECT_ID      = 1998-067XX
CENTER_NAME    = EARTH
REF_FRAME      = TEME
TIME_SYSTEM    = UTC
MEAN_ELEMENT_THEORY = SGP/SGP4

EPOCH          = 2026-03-21T19:05:44.145312
MEAN_MOTION    = 15.82512156
ECCENTRICITY   = .00075961
INCLINATION    = 51.6202
RA_OF_ASC_NODE = 1.4317
ARG_OF_PERICENTER = 165.5607
MEAN_ANOMALY   = 194.5614

EPHEMERIS_TYPE = 0
CLASSIFICATION_TYPE = U
NORAD_CAT_ID   = 66911
ELEMENT_SET_NO = 999
REV_AT_EPOCH   = 1710
BSTAR          = .2054154E-2
MEAN_MOTION_DOT = .46225E-2
MEAN_MOTION_DDOT = 0

CCSDS_OMM_VERS = 2.0
CREATION_DATE  = 
ORIGINATOR     = 

OBJECT_NAME    = ISS OBJECT XY
OBJECT_ID      = 1998-067XY
CENTER_NAME    = EARTH
REF_FRAME      = TEME
TIME_SYSTEM    = UTC
MEAN_ELEMENT_THEORY = SGP/SGP4

EPOCH          = 2026-03-21T12:34:04.346688
MEAN_MOTION    = 15.65954710
ECCENTRICITY   = .0003878
INCLINATION    = 51.6282
RA_OF_ASC_NODE = 7.1735
ARG_OF_PERICENTER = 158.9718
MEAN_ANOMALY   = 201.1438

EPHEMERIS_TYPE = 0
CLASSIFICATION_TYPE = U
NORAD_CAT_ID   = 66912
ELEMENT_SET_NO = 999
REV_AT_EPOCH   = 1700
BSTAR          = .12251516E-2
MEAN_MOTION_DOT = .129023E-2
MEAN_MOTION_DDOT = 0

CCSDS_OMM_VERS = 2.0
CREATION_DATE  = 
ORIGINATOR     = 

OBJECT_NAME    = KNACKSAT-2
OBJECT_ID      = 1998-067XZ
CENTER_NAME    = EARTH
REF_FRAME      = TEME
TIME_SYSTEM    = UTC
MEAN_ELEMENT_THEORY = SGP/SGP4

EPOCH          = 2026-03-21T19:55:46.026912
MEAN_MOTION    = 15.52793496
ECCENTRICITY   = .0009777
INCLINATION    = 51.6322
RA_OF_ASC_NODE = 11.4797
ARG_OF_PERICENTER = 229.0674
MEAN_ANOMALY   = 130.9470

EPHEMERIS_TYPE = 0
CLASSIFICATION_TYPE = U
NORAD_CAT_ID   = 67683
ELEMENT_SET_NO = 999
REV_AT_EPOCH   = 667
BSTAR          = .7844628E-3
MEAN_MOTION_DOT = .49396E-3
MEAN_MOTION_DDOT = 0

