HTV-X1                  
1 66174U 25241A   26073.34423285  .00013198  00000+0  56794-3 0  9992
2 66174  51.6357  50.7100 0005732 187.3443 172.7451 15.22910005 21660
SZ-21 MODULE            
1 66515U 25246C   26080.84864069  .00044117  00000+0  36505-3 0  9991
2 66515  41.4733 128.4589 0000505 233.4003 126.6793 15.69453239 19987
SHENZHOU-22             
1 66645U 25272A   26080.87147154  .00028184  00000+0  32507-3 0  9990
2 66645  41.4660 134.0045 0005312 350.4571   9.6167 15.61285999279106
SOYUZ-MS 28             
1 66664U 25275A   26080.84027524  .00015204  00000+0  28910-3 0  9991
2 66664  51.6344  12.2940 0006178 217.6452 142.4104 15.48434052557717
DUPLEX                  
1 66906U 98067XS  26080.91241347  .00034198  00000+0  46990-3 0  9999
2 66906  51.6306   8.2783 0003093 164.9627 195.1457 15.56968220 17035
ISS OBJECT XT           
1 66907U 98067XT  26080.79387592  .00227192  00000+0  15658-2 0  9993
2 66907  51.6255   3.7105 0005298 157.6847 202.4384 15.73355996 17084
ISS OBJECT XU           
1 66908U 98067XU  26080.79101126  .00231332  00000+0  15826-2 0  9999
2 66908  51.6250   3.6874 0005487 157.2895 202.8347 15.73514339 17082
SILVERSAT               
1 66909U 98067XV  26080.76561226  .00331784  00000+0  18726-2 0  9992
2 66909  51.6233   2.7602 0006028 161.9220 198.1996 15.77625461 17090
ISS OBJECT XW           
1 66910U 98067XW  26080.79537345  .00200201  00000+0  14497-2 0  9992
2 66910  51.6252   3.7127 0005794 158.4228 201.7016 15.72275809 17089
ISS OBJECT XX           
1 66911U 98067XX  26080.79564983  .00462250  00000+0  20542-2 0  9993
2 66911  51.6202   1.4317 0007596 165.5607 194.5614 15.82512156 17109
ISS OBJECT XY           
1 66912U 98067XY  26080.52366142  .00129023  00000+0  12252-2 0  9999
2 66912  51.6282   7.1735 0003878 158.9718 201.1438 15.65954710 17008
KNACKSAT-2              
1 67683U 98067XZ  26080.83039383  .00049396  00000+0  78446-3 0  9995
2 67683  51.6322  11.4797 0009777 229.0674 130.9470 15.52793496  6674
